{"type":"FeatureCollection","name":"barriers","features":[{"type":"Feature","id":"way/232603671","properties":{"id":"way/232603671","name":null,"class":"fence","barrier":"fence","material":null,"source":"openstreetmap","source_date":"2026-09-11","confidence":"medium","surveyed":false},"geometry":{"type":"LineString","coordinates":[[-77.078198,38.713409],[-77.0787799,38.7145728],[-77.0791997,38.7152988],[-77.0795605,38.7163538],[-77.0812745,38.7158284],[-77.0834285,38.7156723],[-77.0843502,38.7148451],[-77.0851098,38.7143091],[-77.0848094,38.7137085],[-77.084855,38.7126914],[-77.0848425,38.712602]]}},{"type":"Feature","id":"way/232605912","properties":{"id":"way/232605912","name":null,"class":"wall","barrier":"wall","material":null,"source":"openstreetmap","source_date":"2026-09-11","confidence":"medium","surveyed":false},"geometry":{"type":"LineString","coordinates":[[-77.0887275,38.706919],[-77.0888166,38.7068069],[-77.0887203,38.7067603],[-77.0886312,38.7068724],[-77.0887275,38.706919]]}},{"type":"Feature","id":"way/232717206","properties":{"id":"way/232717206","name":null,"class":"fence","barrier":"fence","material":null,"source":"openstreetmap","source_date":"2026-09-11","confidence":"medium","surveyed":false},"geometry":{"type":"LineString","coordinates":[[-77.0867355,38.7092086],[-77.0868294,38.7092484],[-77.0869393,38.7092777],[-77.0870654,38.7092986],[-77.0871198,38.709304],[-77.0871579,38.7093018]]}},{"type":"Feature","id":"way/232717209","properties":{"id":"way/232717209","name":null,"class":"fence","barrier":"fence","material":null,"source":"openstreetmap","source_date":"2026-09-11","confidence":"medium","surveyed":false},"geometry":{"type":"LineString","coordinates":[[-77.0873021,38.707542],[-77.0873275,38.7075058],[-77.087347,38.7074778],[-77.0875588,38.7075782],[-77.0878313,38.7077238],[-77.0879935,38.7078105],[-77.0880766,38.7078712],[-77.0881516,38.7079403],[-77.0881946,38.708003],[-77.0882241,38.7080658],[-77.088259,38.70816],[-77.0881222,38.7082187],[-77.0880919,38.7082312]]}},{"type":"Feature","id":"way/232717211","properties":{"id":"way/232717211","name":null,"class":"fence","barrier":"fence","material":null,"source":"openstreetmap","source_date":"2026-09-11","confidence":"medium","surveyed":false},"geometry":{"type":"LineString","coordinates":[[-77.086977,38.7079457],[-77.0869787,38.7079436],[-77.0871106,38.7077811],[-77.087225,38.7076401],[-77.0874703,38.7077665],[-77.0877868,38.7079298],[-77.0878889,38.7079863],[-77.0879479,38.7080282],[-77.0880309,38.7081161],[-77.0880847,38.7082144],[-77.0880919,38.7082312]]}},{"type":"Feature","id":"way/232717212","properties":{"id":"way/232717212","name":null,"class":"fence","barrier":"fence","material":null,"source":"openstreetmap","source_date":"2026-09-11","confidence":"medium","surveyed":false},"geometry":{"type":"LineString","coordinates":[[-77.0869581,38.7088382],[-77.0868534,38.7087879],[-77.0867622,38.7087419]]}},{"type":"Feature","id":"way/232717213","properties":{"id":"way/232717213","name":null,"class":"fence","barrier":"fence","material":null,"source":"openstreetmap","source_date":"2026-09-11","confidence":"medium","surveyed":false},"geometry":{"type":"LineString","coordinates":[[-77.0871989,38.7092814],[-77.0872064,38.7092638],[-77.0872129,38.7092107],[-77.0872103,38.7091479],[-77.0871968,38.709083],[-77.0871645,38.7090161],[-77.0871083,38.7089386],[-77.0870217,38.7088766]]}},{"type":"Feature","id":"way/232717214","properties":{"id":"way/232717214","name":null,"class":"fence","barrier":"fence","material":null,"source":"openstreetmap","source_date":"2026-09-11","confidence":"medium","surveyed":false},"geometry":{"type":"LineString","coordinates":[[-77.0880751,38.7082529],[-77.0880533,38.7082614],[-77.0879666,38.7082919],[-77.0878701,38.708317],[-77.0877816,38.7083254],[-77.0876931,38.7083233],[-77.0876233,38.7083086],[-77.0875482,38.7082814],[-77.0874597,38.7082333],[-77.0869858,38.7079756]]}},{"type":"Feature","id":"way/232717216","properties":{"id":"way/232717216","name":null,"class":"fence","barrier":"fence","material":null,"source":"openstreetmap","source_date":"2026-09-11","confidence":"medium","surveyed":false},"geometry":{"type":"LineString","coordinates":[[-77.0867622,38.7087419],[-77.0867107,38.7087174],[-77.0864457,38.7085828],[-77.0861936,38.7088863]]}},{"type":"Feature","id":"way/232718121","properties":{"id":"way/232718121","name":null,"class":"fence","barrier":"fence","material":null,"source":"openstreetmap","source_date":"2026-09-11","confidence":"medium","surveyed":false},"geometry":{"type":"LineString","coordinates":[[-77.091397,38.7065107],[-77.0917125,38.7067269],[-77.0915367,38.7068409],[-77.0914703,38.706884],[-77.0913091,38.7069886]]}},{"type":"Feature","id":"way/232718122","properties":{"id":"way/232718122","name":null,"class":"fence","barrier":"fence","material":null,"source":"openstreetmap","source_date":"2026-09-11","confidence":"medium","surveyed":false},"geometry":{"type":"LineString","coordinates":[[-77.091125,38.7066754],[-77.0911532,38.7066588],[-77.0912059,38.7066278],[-77.0912898,38.7065784]]}},{"type":"Feature","id":"way/232718123","properties":{"id":"way/232718123","name":null,"class":"fence","barrier":"fence","material":null,"source":"openstreetmap","source_date":"2026-09-11","confidence":"medium","surveyed":false},"geometry":{"type":"LineString","coordinates":[[-77.0884343,38.7079707],[-77.0884172,38.7079362],[-77.0883433,38.7079586],[-77.0883607,38.7079936]]}},{"type":"Feature","id":"way/232718125","properties":{"id":"way/232718125","name":null,"class":"fence","barrier":"fence","material":"brick","source":"openstreetmap","source_date":"2026-09-11","confidence":"medium","surveyed":false},"geometry":{"type":"LineString","coordinates":[[-77.0871858,38.7093187],[-77.0872827,38.7094326],[-77.0874488,38.7094075],[-77.0875722,38.709374],[-77.0877011,38.7093237],[-77.0878191,38.7092568],[-77.0879129,38.7091898],[-77.0880096,38.7090956],[-77.0880389,38.7090537],[-77.0880362,38.7090244],[-77.0880228,38.7090056],[-77.088036,38.7089901],[-77.088055,38.7089679],[-77.08809,38.7089721],[-77.0881276,38.7089575],[-77.0881726,38.7089104],[-77.0882295,38.7088214],[-77.0882751,38.7087356],[-77.0883073,38.7086372],[-77.0883234,38.7085389],[-77.0883234,38.7084447],[-77.08831,38.7083505],[-77.0882858,38.7082584],[-77.088259,38.70816]]}},{"type":"Feature","id":"way/232718126","properties":{"id":"way/232718126","name":null,"class":"fence","barrier":"fence","material":null,"source":"openstreetmap","source_date":"2026-09-11","confidence":"medium","surveyed":false},"geometry":{"type":"LineString","coordinates":[[-77.0886569,38.7069908],[-77.0878829,38.7066053],[-77.0875886,38.7069623],[-77.0872976,38.7073209],[-77.0876865,38.7075146],[-77.088074,38.7077076]]}},{"type":"Feature","id":"way/232718127","properties":{"id":"way/232718127","name":null,"class":"fence","barrier":"fence","material":null,"source":"openstreetmap","source_date":"2026-09-11","confidence":"medium","surveyed":false},"geometry":{"type":"LineString","coordinates":[[-77.0888216,38.7076575],[-77.0888571,38.7076556],[-77.0888543,38.707687],[-77.0888813,38.7077016],[-77.0888489,38.7077289],[-77.0888679,38.7077498],[-77.088841,38.7077623],[-77.0888437,38.7077916],[-77.0888142,38.7078042],[-77.0888249,38.7078272],[-77.0887874,38.707844],[-77.0887953,38.7078921],[-77.0887606,38.7079005],[-77.0887606,38.7079319],[-77.0887311,38.7079423],[-77.0887418,38.7079717],[-77.0887177,38.7079863],[-77.088723,38.7080135],[-77.08868,38.7080198],[-77.0886719,38.7079947],[-77.0886371,38.7079989],[-77.0886265,38.7079758],[-77.0885943,38.7079779],[-77.0885889,38.7079486],[-77.0885487,38.7079444],[-77.0885487,38.7079214],[-77.0885755,38.707911],[-77.0885755,38.7078858],[-77.0886075,38.7078712],[-77.088605,38.7078461],[-77.0886397,38.7078377],[-77.0886426,38.7078126],[-77.0886719,38.7077937],[-77.0886694,38.7077707],[-77.0887069,38.7077707],[-77.0887042,38.7077435],[-77.0887284,38.707733],[-77.088723,38.7077079],[-77.0887579,38.7077037],[-77.0887509,38.7076813],[-77.0887824,38.7076808]]}},{"type":"Feature","id":"way/232718130","properties":{"id":"way/232718130","name":null,"class":"fence","barrier":"fence","material":null,"source":"openstreetmap","source_date":"2026-09-11","confidence":"medium","surveyed":false},"geometry":{"type":"LineString","coordinates":[[-77.0898549,38.7080805],[-77.0893104,38.7083275],[-77.0889214,38.7081328],[-77.089415,38.7073416],[-77.0895706,38.7073751],[-77.0897341,38.7074442],[-77.0898549,38.7080805]]}},{"type":"Feature","id":"way/232718131","properties":{"id":"way/232718131","name":null,"class":"fence","barrier":"fence","material":null,"source":"openstreetmap","source_date":"2026-09-11","confidence":"medium","surveyed":false},"geometry":{"type":"LineString","coordinates":[[-77.0883607,38.7079936],[-77.0883775,38.7080273],[-77.0884514,38.7080049],[-77.0884343,38.7079707]]}},{"type":"Feature","id":"way/232718132","properties":{"id":"way/232718132","name":null,"class":"fence","barrier":"fence","material":null,"source":"openstreetmap","source_date":"2026-09-11","confidence":"medium","surveyed":false},"geometry":{"type":"LineString","coordinates":[[-77.0884944,38.707917],[-77.0887878,38.7075582],[-77.0890796,38.7072014],[-77.0886569,38.7069908]]}},{"type":"Feature","id":"way/232718136","properties":{"id":"way/232718136","name":null,"class":"fence","barrier":"fence","material":null,"source":"openstreetmap","source_date":"2026-09-11","confidence":"medium","surveyed":false},"geometry":{"type":"LineString","coordinates":[[-77.0885186,38.7081428],[-77.0884523,38.7081533]]}},{"type":"Feature","id":"way/232718137","properties":{"id":"way/232718137","name":null,"class":"fence","barrier":"fence","material":null,"source":"openstreetmap","source_date":"2026-09-11","confidence":"medium","surveyed":false},"geometry":{"type":"LineString","coordinates":[[-77.091397,38.7065107],[-77.0912125,38.7063353],[-77.0911527,38.7063741]]}},{"type":"Feature","id":"way/232718138","properties":{"id":"way/232718138","name":null,"class":"fence","barrier":"fence","material":null,"source":"openstreetmap","source_date":"2026-09-11","confidence":"medium","surveyed":false},"geometry":{"type":"LineString","coordinates":[[-77.0908994,38.7065441],[-77.0908418,38.7065839]]}},{"type":"Feature","id":"way/232718140","properties":{"id":"way/232718140","name":null,"class":"fence","barrier":"fence","material":null,"source":"openstreetmap","source_date":"2026-09-11","confidence":"medium","surveyed":false},"geometry":{"type":"LineString","coordinates":[[-77.091104,38.706406],[-77.09102,38.7064633],[-77.0909489,38.7065117]]}},{"type":"Feature","id":"way/232718141","properties":{"id":"way/232718141","name":null,"class":"fence","barrier":"fence","material":null,"source":"openstreetmap","source_date":"2026-09-11","confidence":"medium","surveyed":false},"geometry":{"type":"LineString","coordinates":[[-77.0886569,38.7069908],[-77.0883644,38.7073505],[-77.088074,38.7077076]]}},{"type":"Feature","id":"way/232718142","properties":{"id":"way/232718142","name":null,"class":"fence","barrier":"fence","material":null,"source":"openstreetmap","source_date":"2026-09-11","confidence":"medium","surveyed":false},"geometry":{"type":"LineString","coordinates":[[-77.088074,38.7077076],[-77.0884944,38.707917]]}},{"type":"Feature","id":"way/232718143","properties":{"id":"way/232718143","name":null,"class":"fence","barrier":"fence","material":null,"source":"openstreetmap","source_date":"2026-09-11","confidence":"medium","surveyed":false},"geometry":{"type":"LineString","coordinates":[[-77.0907729,38.7070538],[-77.0908742,38.7068456]]}},{"type":"Feature","id":"way/232718144","properties":{"id":"way/232718144","name":null,"class":"fence","barrier":"fence","material":null,"source":"openstreetmap","source_date":"2026-09-11","confidence":"medium","surveyed":false},"geometry":{"type":"LineString","coordinates":[[-77.0884343,38.7079707],[-77.0883607,38.7079936]]}},{"type":"Feature","id":"way/232718145","properties":{"id":"way/232718145","name":null,"class":"fence","barrier":"fence","material":null,"source":"openstreetmap","source_date":"2026-09-11","confidence":"medium","surveyed":false},"geometry":{"type":"LineString","coordinates":[[-77.0893984,38.7049639],[-77.089356,38.7049661],[-77.0893453,38.7049807],[-77.0893077,38.7049765],[-77.0892943,38.7050079],[-77.0892595,38.7050079],[-77.0892353,38.7050414],[-77.0891924,38.7050498],[-77.0891817,38.7050707],[-77.0891549,38.7050686],[-77.0891414,38.7050833],[-77.0891199,38.7050895],[-77.0891091,38.7051167],[-77.0890744,38.7051252],[-77.0890798,38.705144],[-77.0891039,38.7051566],[-77.0891227,38.7051419],[-77.0891522,38.7051503],[-77.0891709,38.7051356],[-77.0891951,38.7051503],[-77.0892273,38.7051335],[-77.0892568,38.7051398],[-77.0892756,38.7051231],[-77.0893051,38.7051273],[-77.0893237,38.7051146],[-77.0893614,38.7051252],[-77.089372,38.7051062],[-77.089415,38.7051063],[-77.0894177,38.7050875],[-77.0894526,38.7050854],[-77.0894714,38.7050666],[-77.0895089,38.7050645],[-77.0895141,38.7050455],[-77.0895599,38.7050456],[-77.0895733,38.7050226],[-77.0895706,38.7049975],[-77.0895356,38.7050037],[-77.089525,38.7049786],[-77.0894905,38.7049744]]}},{"type":"Feature","id":"way/232718146","properties":{"id":"way/232718146","name":null,"class":"fence","barrier":"fence","material":null,"source":"openstreetmap","source_date":"2026-09-11","confidence":"medium","surveyed":false},"geometry":{"type":"LineString","coordinates":[[-77.0885186,38.7081428],[-77.0885043,38.7080833],[-77.0883701,38.7081035],[-77.0883794,38.7081411]]}},{"type":"Feature","id":"way/232718148","properties":{"id":"way/232718148","name":null,"class":"fence","barrier":"fence","material":null,"source":"openstreetmap","source_date":"2026-09-11","confidence":"medium","surveyed":false},"geometry":{"type":"LineString","coordinates":[[-77.0883904,38.708185],[-77.0883996,38.7082223],[-77.0885336,38.7082021],[-77.0885186,38.7081428]]}},{"type":"Feature","id":"way/232718149","properties":{"id":"way/232718149","name":null,"class":"fence","barrier":"fence","material":null,"source":"openstreetmap","source_date":"2026-09-11","confidence":"medium","surveyed":false},"geometry":{"type":"LineString","coordinates":[[-77.0913384,38.7065465],[-77.091397,38.7065107]]}},{"type":"Feature","id":"way/232718777","properties":{"id":"way/232718777","name":null,"class":"fence","barrier":"fence","material":null,"source":"openstreetmap","source_date":"2026-09-11","confidence":"medium","surveyed":false},"geometry":{"type":"LineString","coordinates":[[-77.0913216,38.7121993],[-77.0912603,38.7121702],[-77.0912148,38.7121555],[-77.0911611,38.7121513],[-77.0911127,38.7121597],[-77.0910726,38.7121765],[-77.0910431,38.7122037],[-77.091019,38.7122413],[-77.0909868,38.7123168],[-77.0911477,38.7124131]]}},{"type":"Feature","id":"way/232718778","properties":{"id":"way/232718778","name":null,"class":"fence","barrier":"fence","material":"brick","source":"openstreetmap","source_date":"2026-09-11","confidence":"medium","surveyed":false},"geometry":{"type":"LineString","coordinates":[[-77.0861803,38.7071637],[-77.086105,38.7072663],[-77.0860165,38.7073333],[-77.0859334,38.707373],[-77.0858127,38.7074609],[-77.0856036,38.7077037],[-77.0855205,38.7077561],[-77.0854293,38.7078272],[-77.0852978,38.7079486],[-77.085169,38.7080533],[-77.0850135,38.7081537],[-77.0848954,38.7082291],[-77.0848578,38.7082668],[-77.0848285,38.7083086],[-77.0848124,38.7083484],[-77.0848042,38.7083924],[-77.0848095,38.7084363],[-77.0848311,38.7084803],[-77.0848821,38.7085326],[-77.0849733,38.7085975],[-77.0850214,38.7086226],[-77.0850644,38.7086351],[-77.0851181,38.7086435],[-77.0851718,38.7086414],[-77.0854024,38.7086079],[-77.0854749,38.7086017],[-77.0855473,38.7086079],[-77.0856251,38.7086247],[-77.0856868,38.7086435],[-77.0857664,38.7086879]]}},{"type":"Feature","id":"way/232718779","properties":{"id":"way/232718779","name":null,"class":"hedge","barrier":"hedge","material":null,"source":"openstreetmap","source_date":"2026-09-11","confidence":"medium","surveyed":false},"geometry":{"type":"LineString","coordinates":[[-77.0837612,38.7103147],[-77.0836996,38.7103916],[-77.0840578,38.7105667],[-77.0842641,38.7103097],[-77.0839058,38.7101346],[-77.083845,38.7102104]]}},{"type":"Feature","id":"way/232718780","properties":{"id":"way/232718780","name":null,"class":"wall","barrier":"wall","material":null,"source":"openstreetmap","source_date":"2026-09-11","confidence":"medium","surveyed":false},"geometry":{"type":"LineString","coordinates":[[-77.0896264,38.7045952],[-77.0893126,38.704827],[-77.0888465,38.705188],[-77.088662,38.705186],[-77.0883282,38.7051894]]}},{"type":"Feature","id":"way/232718781","properties":{"id":"way/232718781","name":null,"class":"fence","barrier":"fence","material":null,"source":"openstreetmap","source_date":"2026-09-11","confidence":"medium","surveyed":false},"geometry":{"type":"LineString","coordinates":[[-77.0848425,38.712602],[-77.0848617,38.7125381],[-77.0849143,38.7111384],[-77.0851932,38.7108223],[-77.0856572,38.7103073]]}},{"type":"Feature","id":"way/232718783","properties":{"id":"way/232718783","name":null,"class":"fence","barrier":"fence","material":null,"source":"openstreetmap","source_date":"2026-09-11","confidence":"medium","surveyed":false},"geometry":{"type":"LineString","coordinates":[[-77.0911477,38.7124131],[-77.0917217,38.7126893],[-77.0922044,38.7129152]]}},{"type":"Feature","id":"way/232718784","properties":{"id":"way/232718784","name":null,"class":"fence","barrier":"fence","material":null,"source":"openstreetmap","source_date":"2026-09-11","confidence":"medium","surveyed":false},"geometry":{"type":"LineString","coordinates":[[-77.0865413,38.7093919],[-77.0865712,38.7093872],[-77.086596,38.7093991],[-77.0865557,38.709441],[-77.0865939,38.7094639]]}},{"type":"Feature","id":"way/232718785","properties":{"id":"way/232718785","name":null,"class":"fence","barrier":"fence","material":null,"source":"openstreetmap","source_date":"2026-09-11","confidence":"medium","surveyed":false},"geometry":{"type":"LineString","coordinates":[[-77.0904938,38.7039827],[-77.0906086,38.7040827],[-77.0924545,38.7053367],[-77.0941411,38.7064709],[-77.0953347,38.7072851],[-77.0977782,38.7082207]]}},{"type":"Feature","id":"way/232718786","properties":{"id":"way/232718786","name":null,"class":"wall","barrier":"wall","material":null,"source":"openstreetmap","source_date":"2026-09-11","confidence":"medium","surveyed":false},"geometry":{"type":"LineString","coordinates":[[-77.0882293,38.7052239],[-77.088036,38.705376],[-77.087853,38.705524],[-77.087728,38.705606],[-77.087607,38.705671],[-77.086891,38.706014],[-77.08608,38.70636],[-77.0857935,38.7064705],[-77.0857807,38.7064755],[-77.085753,38.706485],[-77.0851565,38.706694]]}},{"type":"Feature","id":"way/232718790","properties":{"id":"way/232718790","name":null,"class":"wall","barrier":"wall","material":null,"source":"openstreetmap","source_date":"2026-09-11","confidence":"medium","surveyed":false},"geometry":{"type":"LineString","coordinates":[[-77.0841319,38.7089958],[-77.0841371,38.708934],[-77.0840527,38.7089297],[-77.0840475,38.7089915],[-77.0841319,38.7089958]]}},{"type":"Feature","id":"way/232718791","properties":{"id":"way/232718791","name":null,"class":"wall","barrier":"wall","material":null,"source":"openstreetmap","source_date":"2026-09-11","confidence":"medium","surveyed":false},"geometry":{"type":"LineString","coordinates":[[-77.0856572,38.7103073],[-77.0857105,38.7102443],[-77.085649,38.7102126],[-77.0855957,38.7102756],[-77.0856572,38.7103073]]}},{"type":"Feature","id":"way/232718792","properties":{"id":"way/232718792","name":null,"class":"fence","barrier":"fence","material":null,"source":"openstreetmap","source_date":"2026-09-11","confidence":"medium","surveyed":false},"geometry":{"type":"LineString","coordinates":[[-77.0913945,38.7124926],[-77.091515,38.712336]]}},{"type":"Feature","id":"way/232718793","properties":{"id":"way/232718793","name":null,"class":"fence","barrier":"fence","material":null,"source":"openstreetmap","source_date":"2026-09-11","confidence":"medium","surveyed":false},"geometry":{"type":"LineString","coordinates":[[-77.0857767,38.7090407],[-77.085797,38.7090509],[-77.0858245,38.7090634]]}},{"type":"Feature","id":"way/232718794","properties":{"id":"way/232718794","name":null,"class":"fence","barrier":"fence","material":null,"source":"openstreetmap","source_date":"2026-09-11","confidence":"medium","surveyed":false},"geometry":{"type":"LineString","coordinates":[[-77.0858436,38.7087287],[-77.0858545,38.7087726],[-77.0858646,38.7088135],[-77.0857863,38.7088983]]}},{"type":"Feature","id":"way/232718795","properties":{"id":"way/232718795","name":null,"class":"fence","barrier":"fence","material":null,"source":"openstreetmap","source_date":"2026-09-11","confidence":"medium","surveyed":false},"geometry":{"type":"LineString","coordinates":[[-77.0862763,38.7101839],[-77.0863634,38.7102473]]}},{"type":"Feature","id":"way/232718797","properties":{"id":"way/232718797","name":null,"class":"fence","barrier":"fence","material":null,"source":"openstreetmap","source_date":"2026-09-11","confidence":"medium","surveyed":false},"geometry":{"type":"LineString","coordinates":[[-77.0867329,38.7095605],[-77.0867999,38.7095875],[-77.0868803,38.7096105],[-77.0869689,38.7096293],[-77.08706,38.7096398]]}},{"type":"Feature","id":"way/232718798","properties":{"id":"way/232718798","name":null,"class":"fence","barrier":"fence","material":null,"source":"openstreetmap","source_date":"2026-09-11","confidence":"medium","surveyed":false},"geometry":{"type":"LineString","coordinates":[[-77.092117,38.7125389],[-77.0920785,38.7125324],[-77.0920731,38.712501],[-77.0920354,38.7125176],[-77.0920221,38.7124842],[-77.0919926,38.7124863],[-77.0919953,38.7124549],[-77.0919737,38.7124423],[-77.0919792,38.7124235],[-77.0920195,38.7124214],[-77.0920329,38.7123984],[-77.0920597,38.7124089],[-77.0920865,38.7124005],[-77.0921159,38.7124088],[-77.0921373,38.7123983],[-77.0921723,38.7124047],[-77.0921938,38.71239],[-77.0922258,38.712392],[-77.0922446,38.7124046],[-77.092226,38.7124298],[-77.092191,38.7124318],[-77.0922205,38.7124506],[-77.0922528,38.7124445],[-77.09225,38.7124716],[-77.092285,38.7124738],[-77.0922849,38.7125029],[-77.0922501,38.7125114],[-77.0922474,38.7125365],[-77.0922179,38.7125324],[-77.0921992,38.7125051],[-77.0921883,38.7125322],[-77.0921545,38.7125264]]}},{"type":"Feature","id":"way/232718800","properties":{"id":"way/232718800","name":null,"class":"fence","barrier":"fence","material":null,"source":"openstreetmap","source_date":"2026-09-11","confidence":"medium","surveyed":false},"geometry":{"type":"LineString","coordinates":[[-77.0879935,38.71104],[-77.0878754,38.7111091],[-77.0880019,38.7111464],[-77.0881624,38.7112116],[-77.088165,38.7112535],[-77.088168,38.7113031]]}},{"type":"Feature","id":"way/232718801","properties":{"id":"way/232718801","name":null,"class":"fence","barrier":"fence","material":null,"source":"openstreetmap","source_date":"2026-09-11","confidence":"medium","surveyed":false},"geometry":{"type":"LineString","coordinates":[[-77.0880607,38.7112956],[-77.0878887,38.7112974],[-77.0878486,38.7113038],[-77.0878056,38.7113225],[-77.0877789,38.7113457],[-77.0877655,38.7113687],[-77.08776,38.7113979],[-77.0890207,38.7121534],[-77.0901178,38.7128358],[-77.0917314,38.7139506],[-77.0930547,38.7148658],[-77.0936154,38.7152614],[-77.0938004,38.715389],[-77.0939639,38.7154874],[-77.0940955,38.7155563],[-77.0942725,38.71564],[-77.0944574,38.7157176],[-77.0946373,38.7157886],[-77.094841,38.7158536],[-77.0950364,38.7159074],[-77.0952837,38.7159665],[-77.0955117,38.7160042],[-77.0957745,38.7160314],[-77.0960562,38.716044],[-77.09648,38.7133946],[-77.0965229,38.7131184],[-77.0964503,38.7130743],[-77.0964562,38.7130454],[-77.0964639,38.7130074],[-77.0965363,38.7129907],[-77.0966624,38.7121827],[-77.0968045,38.711241],[-77.0969306,38.71041],[-77.0970164,38.7100689],[-77.0970996,38.7098177],[-77.0974429,38.7088528],[-77.0975018,38.7086946],[-77.0975143,38.7086612],[-77.0977782,38.7082207]]}},{"type":"Feature","id":"way/232718802","properties":{"id":"way/232718802","name":null,"class":"fence","barrier":"fence","material":null,"source":"openstreetmap","source_date":"2026-09-11","confidence":"medium","surveyed":false},"geometry":{"type":"LineString","coordinates":[[-77.0869545,38.7104154],[-77.0868722,38.710364],[-77.0868213,38.7103451],[-77.0867704,38.7103326],[-77.0867087,38.7103305],[-77.0866415,38.7103388],[-77.0866093,38.7103012],[-77.0866577,38.7102781],[-77.0867194,38.7102635],[-77.0867945,38.7102614],[-77.0868319,38.7102677],[-77.0868641,38.7102781],[-77.0869339,38.7103095],[-77.087017,38.7103556],[-77.0872128,38.7104874],[-77.0872369,38.7104937],[-77.0872638,38.7104958],[-77.0872852,38.7104916],[-77.0873174,38.710477],[-77.0875402,38.7102781],[-77.0875212,38.7101594],[-77.0875026,38.7100437],[-77.0874999,38.709893],[-77.0874824,38.709841],[-77.0874704,38.7098051],[-77.0870626,38.7098365],[-77.0869875,38.7098868],[-77.086934,38.7099391],[-77.0867623,38.7100207],[-77.0866495,38.7100249],[-77.0864815,38.7101506],[-77.0863835,38.71009]]}},{"type":"Feature","id":"way/232718803","properties":{"id":"way/232718803","name":null,"class":"fence","barrier":"fence","material":null,"source":"openstreetmap","source_date":"2026-09-11","confidence":"medium","surveyed":false},"geometry":{"type":"LineString","coordinates":[[-77.0929008,38.7127207],[-77.0929207,38.7126935],[-77.0929153,38.7126684],[-77.0929661,38.7126599],[-77.0929824,38.7126349],[-77.0929824,38.7126098],[-77.0930117,38.7126097],[-77.0930253,38.712593],[-77.0930011,38.7125763],[-77.0929636,38.7125784],[-77.0929609,38.7125554],[-77.092926,38.7125575],[-77.0929207,38.7125365],[-77.0928858,38.7125491],[-77.0928615,38.7125636],[-77.0928295,38.712547],[-77.0927864,38.712549],[-77.0927839,38.7125282],[-77.0927463,38.7125261],[-77.0927301,38.712505],[-77.0926981,38.7125198],[-77.0926766,38.7124926],[-77.0926471,38.712501],[-77.0926444,38.712524],[-77.0926149,38.7125114],[-77.0926176,38.7125386],[-77.0925827,38.7125386],[-77.0925908,38.7125658],[-77.0925666,38.7125742],[-77.0925666,38.7126035],[-77.0925371,38.7126077],[-77.0925478,38.712637],[-77.0925157,38.712637],[-77.0925157,38.71266],[-77.0924862,38.71266],[-77.0924807,38.7126829],[-77.092521,38.7126956],[-77.092513,38.7127186],[-77.0925452,38.7127207],[-77.0925424,38.7127415],[-77.0925774,38.7127416],[-77.0925745,38.7127625],[-77.0926069,38.7127521],[-77.0925988,38.7127751],[-77.0926282,38.7127708],[-77.092623,38.7127982],[-77.0926498,38.7127877],[-77.0926496,38.7128106],[-77.0926739,38.7128065],[-77.0926793,38.7128295],[-77.0927115,38.7128316],[-77.0927168,38.7128588],[-77.0927489,38.7128378],[-77.0927678,38.7128505],[-77.0927705,38.7128295],[-77.0928,38.7128316],[-77.0928027,38.7128086],[-77.0928322,38.7127982],[-77.0928186,38.7127708],[-77.0928509,38.7127709],[-77.0928722,38.7127486]]}},{"type":"Feature","id":"way/232718806","properties":{"id":"way/232718806","name":null,"class":"fence","barrier":"fence","material":null,"source":"openstreetmap","source_date":"2026-09-11","confidence":"medium","surveyed":false},"geometry":{"type":"LineString","coordinates":[[-77.0931869,38.7118481],[-77.0932129,38.7118604],[-77.0932479,38.7118081],[-77.0932533,38.7117684],[-77.093288,38.7117097],[-77.0933284,38.711647],[-77.0931433,38.7115654],[-77.0930521,38.7117224],[-77.0930501,38.7117918],[-77.0930725,38.7118027]]}},{"type":"Feature","id":"way/232718808","properties":{"id":"way/232718808","name":null,"class":"fence","barrier":"fence","material":null,"source":"openstreetmap","source_date":"2026-09-11","confidence":"medium","surveyed":false},"geometry":{"type":"LineString","coordinates":[[-77.0857105,38.7102443],[-77.0858467,38.7100859],[-77.0859547,38.7099603]]}},{"type":"Feature","id":"way/232718809","properties":{"id":"way/232718809","name":null,"class":"fence","barrier":"fence","material":null,"source":"openstreetmap","source_date":"2026-09-11","confidence":"medium","surveyed":false},"geometry":{"type":"LineString","coordinates":[[-77.09409,38.7135724],[-77.0933552,38.7132063],[-77.0931056,38.7130789]]}},{"type":"Feature","id":"way/232718810","properties":{"id":"way/232718810","name":null,"class":"fence","barrier":"fence","material":null,"source":"openstreetmap","source_date":"2026-09-11","confidence":"medium","surveyed":false},"geometry":{"type":"LineString","coordinates":[[-77.0839229,38.7099786],[-77.0839514,38.7099454],[-77.0837983,38.7098763],[-77.0837127,38.7099726],[-77.0837941,38.7100149],[-77.08382,38.7099872]]}},{"type":"Feature","id":"way/232718811","properties":{"id":"way/232718811","name":null,"class":"fence","barrier":"fence","material":null,"source":"openstreetmap","source_date":"2026-09-11","confidence":"medium","surveyed":false},"geometry":{"type":"LineString","coordinates":[[-77.0912968,38.7122306],[-77.0911477,38.7124131]]}},{"type":"Feature","id":"way/232718813","properties":{"id":"way/232718813","name":null,"class":"fence","barrier":"fence","material":null,"source":"openstreetmap","source_date":"2026-09-11","confidence":"medium","surveyed":false},"geometry":{"type":"LineString","coordinates":[[-77.0930481,38.7130526],[-77.092741,38.7129112]]}},{"type":"Feature","id":"way/232718814","properties":{"id":"way/232718814","name":null,"class":"fence","barrier":"fence","material":null,"source":"openstreetmap","source_date":"2026-09-11","confidence":"medium","surveyed":false},"geometry":{"type":"LineString","coordinates":[[-77.0840527,38.7089297],[-77.0840534,38.7089116],[-77.0842974,38.7089093],[-77.0842516,38.7090475],[-77.0841284,38.7091458],[-77.0840478,38.7090265],[-77.0840475,38.7089915]]}},{"type":"Feature","id":"way/232718816","properties":{"id":"way/232718816","name":null,"class":"fence","barrier":"fence","material":null,"source":"openstreetmap","source_date":"2026-09-11","confidence":"medium","surveyed":false},"geometry":{"type":"LineString","coordinates":[[-77.0865228,38.7103509],[-77.0868142,38.7105447]]}},{"type":"Feature","id":"way/232726924","properties":{"id":"way/232726924","name":null,"class":"fence","barrier":"fence","material":null,"source":"openstreetmap","source_date":"2026-09-11","confidence":"medium","surveyed":false},"geometry":{"type":"LineString","coordinates":[[-77.0872409,38.7074648],[-77.0873275,38.7075058]]}},{"type":"Feature","id":"way/232726932","properties":{"id":"way/232726932","name":null,"class":"fence","barrier":"fence","material":null,"source":"openstreetmap","source_date":"2026-09-11","confidence":"medium","surveyed":false},"geometry":{"type":"LineString","coordinates":[[-77.0871349,38.7074619],[-77.0871618,38.7074275],[-77.0872409,38.7074648]]}},{"type":"Feature","id":"way/232726938","properties":{"id":"way/232726938","name":null,"class":"fence","barrier":"fence","material":null,"source":"openstreetmap","source_date":"2026-09-11","confidence":"medium","surveyed":false},"geometry":{"type":"LineString","coordinates":[[-77.0860192,38.7085514],[-77.0860673,38.7084935],[-77.0862016,38.7083317],[-77.0861078,38.7082824],[-77.0860768,38.7082661],[-77.0861153,38.7082292]]}},{"type":"Feature","id":"way/232726942","properties":{"id":"way/232726942","name":null,"class":"fence","barrier":"fence","material":null,"source":"openstreetmap","source_date":"2026-09-11","confidence":"medium","surveyed":false},"geometry":{"type":"LineString","coordinates":[[-77.0868055,38.7076167],[-77.0868474,38.7076392],[-77.0868776,38.7076543]]}},{"type":"Feature","id":"way/232726960","properties":{"id":"way/232726960","name":null,"class":"fence","barrier":"fence","material":null,"source":"openstreetmap","source_date":"2026-09-11","confidence":"medium","surveyed":false},"geometry":{"type":"LineString","coordinates":[[-77.0872409,38.7074648],[-77.0872144,38.7075]]}},{"type":"Feature","id":"way/232727019","properties":{"id":"way/232727019","name":null,"class":"fence","barrier":"fence","material":null,"source":"openstreetmap","source_date":"2026-09-11","confidence":"medium","surveyed":false},"geometry":{"type":"LineString","coordinates":[[-77.0858811,38.7086856],[-77.08592,38.7086707],[-77.0860192,38.7085514]]}},{"type":"Feature","id":"way/232727023","properties":{"id":"way/232727023","name":null,"class":"fence","barrier":"fence","material":null,"source":"openstreetmap","source_date":"2026-09-11","confidence":"medium","surveyed":false},"geometry":{"type":"LineString","coordinates":[[-77.0868055,38.7076167],[-77.0869039,38.7074867]]}},{"type":"Feature","id":"way/232727029","properties":{"id":"way/232727029","name":null,"class":"fence","barrier":"fence","material":"brick","source":"openstreetmap","source_date":"2026-09-11","confidence":"medium","surveyed":false},"geometry":{"type":"LineString","coordinates":[[-77.0868199,38.7074427],[-77.0867246,38.7073877],[-77.0866549,38.7073354],[-77.0866066,38.7072935],[-77.086553,38.7072349],[-77.0865208,38.7071826],[-77.0865047,38.7071281],[-77.0865047,38.7070591],[-77.086439,38.70705],[-77.0862874,38.7070926],[-77.0861803,38.7071637]]}},{"type":"Feature","id":"way/232727039","properties":{"id":"way/232727039","name":null,"class":"fence","barrier":"fence","material":null,"source":"openstreetmap","source_date":"2026-09-11","confidence":"medium","surveyed":false},"geometry":{"type":"LineString","coordinates":[[-77.0864402,38.7078414],[-77.0864557,38.7078219],[-77.0864709,38.7078026],[-77.0865959,38.707867],[-77.0868055,38.7076167]]}},{"type":"Feature","id":"way/232727045","properties":{"id":"way/232727045","name":null,"class":"fence","barrier":"fence","material":null,"source":"openstreetmap","source_date":"2026-09-11","confidence":"medium","surveyed":false},"geometry":{"type":"LineString","coordinates":[[-77.0860917,38.7085874],[-77.0860637,38.7085731],[-77.0860192,38.7085514]]}},{"type":"Feature","id":"way/232727050","properties":{"id":"way/232727050","name":null,"class":"fence","barrier":"fence","material":null,"source":"openstreetmap","source_date":"2026-09-11","confidence":"medium","surveyed":false},"geometry":{"type":"LineString","coordinates":[[-77.0876127,38.7099777],[-77.0876285,38.7099244],[-77.0876876,38.7098428],[-77.0877305,38.7098575],[-77.0877922,38.7098763],[-77.087786,38.709951]]}},{"type":"Feature","id":"way/527634425","properties":{"id":"way/527634425","name":null,"class":"fence","barrier":"fence","material":"wood","source":"openstreetmap","source_date":"2026-09-11","confidence":"medium","surveyed":false},"geometry":{"type":"LineString","coordinates":[[-77.0870807,38.7077681],[-77.0869287,38.7076807]]}},{"type":"Feature","id":"way/527652927","properties":{"id":"way/527652927","name":null,"class":"fence","barrier":"fence","material":null,"source":"openstreetmap","source_date":"2026-09-11","confidence":"medium","surveyed":false},"geometry":{"type":"LineString","coordinates":[[-77.0913091,38.7069886],[-77.0910308,38.7067476],[-77.0908418,38.7065839]]}},{"type":"Feature","id":"way/527652928","properties":{"id":"way/527652928","name":null,"class":"fence","barrier":"fence","material":null,"source":"openstreetmap","source_date":"2026-09-11","confidence":"medium","surveyed":false},"geometry":{"type":"LineString","coordinates":[[-77.0910308,38.7067476],[-77.0910831,38.7067148]]}},{"type":"Feature","id":"way/527652930","properties":{"id":"way/527652930","name":null,"class":"fence","barrier":"fence","material":null,"source":"openstreetmap","source_date":"2026-09-11","confidence":"medium","surveyed":false},"geometry":{"type":"LineString","coordinates":[[-77.0911922,38.7070644],[-77.0910779,38.7071386],[-77.0907729,38.7070538]]}},{"type":"Feature","id":"way/528123155","properties":{"id":"way/528123155","name":null,"class":"fence","barrier":"fence","material":null,"source":"openstreetmap","source_date":"2026-09-11","confidence":"medium","surveyed":false},"geometry":{"type":"LineString","coordinates":[[-77.0908742,38.7068456],[-77.0910327,38.7068226],[-77.091251,38.707024]]}},{"type":"Feature","id":"way/528137204","properties":{"id":"way/528137204","name":null,"class":"fence","barrier":"fence","material":null,"source":"openstreetmap","source_date":"2026-09-11","confidence":"medium","surveyed":false},"geometry":{"type":"LineString","coordinates":[[-77.0854835,38.7090835],[-77.085104,38.7087486],[-77.0849015,38.7086314],[-77.0842974,38.7089093]]}},{"type":"Feature","id":"way/528137205","properties":{"id":"way/528137205","name":null,"class":"fence","barrier":"fence","material":null,"source":"openstreetmap","source_date":"2026-09-11","confidence":"medium","surveyed":false},"geometry":{"type":"LineString","coordinates":[[-77.0840534,38.7089116],[-77.0839077,38.7088543],[-77.0832173,38.7098083],[-77.0836702,38.7100151],[-77.0837127,38.7099726]]}},{"type":"Feature","id":"way/528137206","properties":{"id":"way/528137206","name":null,"class":"fence","barrier":"fence","material":null,"source":"openstreetmap","source_date":"2026-09-11","confidence":"medium","surveyed":false},"geometry":{"type":"LineString","coordinates":[[-77.0854835,38.7090835],[-77.0849334,38.7096665]]}},{"type":"Feature","id":"way/528137207","properties":{"id":"way/528137207","name":null,"class":"fence","barrier":"fence","material":null,"source":"openstreetmap","source_date":"2026-09-11","confidence":"medium","surveyed":false},"geometry":{"type":"LineString","coordinates":[[-77.0848872,38.7097386],[-77.0848811,38.7098107],[-77.0847147,38.7100199],[-77.0842741,38.7101377],[-77.0838911,38.7100203]]}},{"type":"Feature","id":"way/528137208","properties":{"id":"way/528137208","name":null,"class":"fence","barrier":"fence","material":null,"source":"openstreetmap","source_date":"2026-09-11","confidence":"medium","surveyed":false},"geometry":{"type":"LineString","coordinates":[[-77.0852073,38.7093216],[-77.0850632,38.7091852],[-77.084977,38.7092435],[-77.0851202,38.7093769],[-77.0852073,38.7093216]]}},{"type":"Feature","id":"way/528155989","properties":{"id":"way/528155989","name":null,"class":"fence","barrier":"fence","material":null,"source":"openstreetmap","source_date":"2026-09-11","confidence":"medium","surveyed":false},"geometry":{"type":"LineString","coordinates":[[-77.0858245,38.7090634],[-77.0858586,38.7090299],[-77.0859968,38.709115]]}}]}