{"type":"FeatureCollection","name":"parking","features":[{"type":"Feature","id":"way/232603485","properties":{"id":"way/232603485","name":"East Parking Area","class":"parking_lot","capacity":null,"access":"customers","surface":null,"parking_type":"surface","source":"openstreetmap","source_date":"2026-09-11","confidence":"medium","surveyed":false},"geometry":{"type":"Polygon","coordinates":[[[-77.0853163,38.7133381],[-77.085429,38.7128588],[-77.0849839,38.7128001],[-77.0849471,38.7129658],[-77.0850648,38.7129847],[-77.0850185,38.7131957],[-77.0849033,38.7131812],[-77.0848979,38.7132711],[-77.084906,38.7133277],[-77.0849301,38.7133716],[-77.0849596,38.713405],[-77.0850052,38.7134406],[-77.085059,38.7134552],[-77.0851232,38.7134531],[-77.0851769,38.7134448],[-77.0852332,38.7134259],[-77.0852761,38.7133987],[-77.0852949,38.7133778],[-77.0853163,38.7133381]]]}},{"type":"Feature","id":"way/232603509","properties":{"id":"way/232603509","name":"Overflow Parking","class":"parking_lot","capacity":null,"access":"yes","surface":"asphalt","parking_type":"surface","source":"openstreetmap","source_date":"2026-09-11","confidence":"medium","surveyed":false},"geometry":{"type":"Polygon","coordinates":[[[-77.0861988,38.7136164],[-77.0862578,38.7135201],[-77.0863088,38.7134196],[-77.0863625,38.7132982],[-77.0864134,38.713156],[-77.0864509,38.7130367],[-77.0864777,38.7129405],[-77.0864938,38.7128568],[-77.0865952,38.7128738],[-77.0865695,38.712963],[-77.0866764,38.7129864],[-77.0865959,38.713225],[-77.0865233,38.7134238],[-77.0864368,38.7136125],[-77.0863705,38.7135941],[-77.0863454,38.7136505],[-77.0863801,38.7136818],[-77.0864189,38.7136478],[-77.0866211,38.7138337],[-77.0865654,38.7138756],[-77.0866328,38.7139243],[-77.0866777,38.713929],[-77.0867177,38.7139137],[-77.0867261,38.7138906],[-77.0867095,38.7138551],[-77.0866601,38.7138696],[-77.0866092,38.7137105],[-77.0865904,38.713608],[-77.0865904,38.7135264],[-77.0866065,38.7134259],[-77.0866467,38.7132649],[-77.0866923,38.713087],[-77.0867684,38.7130914],[-77.0867728,38.7131226],[-77.0867702,38.7131769],[-77.0868828,38.7132],[-77.0868292,38.713382],[-77.0868077,38.7134636],[-77.0868051,38.7135264],[-77.0868051,38.7136122],[-77.0868747,38.7139387],[-77.0867997,38.7139491],[-77.0868266,38.7140161],[-77.0866495,38.7140642],[-77.0866092,38.7139868],[-77.0865448,38.714014],[-77.0861909,38.7136854],[-77.0862794,38.7136352],[-77.0861988,38.7136164]]]}},{"type":"Feature","id":"way/232603593","properties":{"id":"way/232603593","name":"RV & East Parking Area","class":"parking_lot","capacity":null,"access":"customers","surface":null,"parking_type":"surface","source":"openstreetmap","source_date":"2026-09-11","confidence":"medium","surveyed":false},"geometry":{"type":"Polygon","coordinates":[[[-77.0855014,38.7124047],[-77.0855202,38.7117851],[-77.0854451,38.7118039],[-77.0853951,38.7118182],[-77.0853646,38.7118269],[-77.0852403,38.7117684],[-77.0852418,38.7117326],[-77.0852492,38.7115361],[-77.0853353,38.7115779],[-77.0853485,38.7112974],[-77.0852596,38.7112597],[-77.0852615,38.7112095],[-77.0851126,38.7112932],[-77.0850563,38.7112681],[-77.0850538,38.711333],[-77.0849463,38.711379],[-77.0848954,38.7125343],[-77.0850053,38.7124946],[-77.0850749,38.7124717],[-77.0851179,38.7125658],[-77.0852076,38.7125239],[-77.0852922,38.71257],[-77.0852976,38.7124361],[-77.08542,38.7124821],[-77.085421,38.7124235],[-77.0855014,38.7124047]]]}},{"type":"Feature","id":"way/232603622","properties":{"id":"way/232603622","name":"West Parking Area","class":"parking_lot","capacity":null,"access":"customers","surface":null,"parking_type":"surface","source":"openstreetmap","source_date":"2026-09-11","confidence":"medium","surveyed":false},"geometry":{"type":"Polygon","coordinates":[[[-77.087092,38.7116825],[-77.0869686,38.7117474],[-77.0868373,38.7118227],[-77.0867166,38.7119127],[-77.0865878,38.712032],[-77.086459,38.7121744],[-77.0863357,38.7123376],[-77.0862204,38.7125176],[-77.0863272,38.7125561],[-77.0863168,38.7125721],[-77.0862967,38.7125964],[-77.0864055,38.7126369],[-77.0864804,38.7125051],[-77.0865877,38.7123503],[-77.0867004,38.7122162],[-77.0868398,38.7120739],[-77.086899,38.7119023],[-77.0870061,38.7118374],[-77.0871054,38.7117934],[-77.0871739,38.7117755],[-77.0871355,38.7117319],[-77.087092,38.7116825]]]}},{"type":"Feature","id":"way/232603688","properties":{"id":"way/232603688","name":"West Parking Area","class":"parking_lot","capacity":null,"access":"customers","surface":"asphalt","parking_type":"surface","source":"openstreetmap","source_date":"2026-09-11","confidence":"medium","surveyed":false},"geometry":{"type":"Polygon","coordinates":[[[-77.0862149,38.7135473],[-77.0862928,38.7133799],[-77.0863599,38.713225],[-77.0864,38.7131037],[-77.0864348,38.712974],[-77.0861264,38.7129112],[-77.0861625,38.7128249],[-77.0861185,38.7128127],[-77.0860863,38.7128943],[-77.0860271,38.712884],[-77.0859923,38.7130409],[-77.0859306,38.7131979],[-77.0858662,38.7133381],[-77.0858154,38.7134406],[-77.0858154,38.7135013],[-77.085834,38.7135473],[-77.0858742,38.7135933],[-77.0859279,38.7136289],[-77.0859869,38.7136415],[-77.086054,38.7136415],[-77.0861156,38.713631],[-77.0861641,38.7136038],[-77.0861907,38.7135808],[-77.0862149,38.7135473]]]}},{"type":"Feature","id":"way/232715248","properties":{"id":"way/232715248","name":"Overflow Parking","class":"parking_lot","capacity":null,"access":null,"surface":null,"parking_type":"surface","source":"openstreetmap","source_date":"2026-09-11","confidence":"medium","surveyed":false},"geometry":{"type":"Polygon","coordinates":[[[-77.0891119,38.71266],[-77.0891281,38.7125803],[-77.0891681,38.7125971],[-77.0892078,38.7126087],[-77.0892943,38.7125826],[-77.0886747,38.7121827],[-77.0885621,38.7122037],[-77.0885031,38.7122078],[-77.088511,38.7123125],[-77.0890315,38.7126475],[-77.0891119,38.71266]]]}},{"type":"Feature","id":"way/232721120","properties":{"id":"way/232721120","name":"Employee Parking","class":"parking_lot","capacity":null,"access":null,"surface":null,"parking_type":"surface","source":"openstreetmap","source_date":"2026-09-11","confidence":"medium","surveyed":false},"geometry":{"type":"Polygon","coordinates":[[[-77.0895035,38.7123503],[-77.0897637,38.712053],[-77.0896398,38.7119717],[-77.0894895,38.7118731],[-77.0894095,38.7118207],[-77.0894901,38.711737],[-77.0894472,38.7117119],[-77.0894982,38.711668],[-77.0892164,38.7114858],[-77.0891681,38.7115256],[-77.0888679,38.7113226],[-77.0886104,38.7115696],[-77.0885727,38.7115465],[-77.0884734,38.7116407],[-77.0890395,38.7120153],[-77.0895035,38.7123503]]]}},{"type":"Feature","id":"way/232724505","properties":{"id":"way/232724505","name":"Employee Parking","class":"parking_lot","capacity":null,"access":null,"surface":null,"parking_type":"surface","source":"openstreetmap","source_date":"2026-09-11","confidence":"medium","surveyed":false},"geometry":{"type":"Polygon","coordinates":[[[-77.0857994,38.7098505],[-77.0857136,38.709805],[-77.0856778,38.7097868],[-77.085577,38.7097454],[-77.085478,38.7096931],[-77.08541,38.7097617],[-77.0853642,38.7098057],[-77.0853268,38.7098463],[-77.0852373,38.7099538],[-77.0851595,38.7100402],[-77.0854253,38.7102271],[-77.0855579,38.7101107],[-77.0854576,38.7100442],[-77.0853646,38.7099893],[-77.0854204,38.7099261],[-77.0854744,38.7098714],[-77.0855568,38.7099147],[-77.0855842,38.7099271],[-77.085623,38.7099465],[-77.0856821,38.7099788],[-77.0857511,38.7099033],[-77.0857994,38.7098505]]]}},{"type":"Feature","id":"way/232724525","properties":{"id":"way/232724525","name":"Overflow Parking","class":"parking_lot","capacity":null,"access":null,"surface":null,"parking_type":"surface","source":"openstreetmap","source_date":"2026-09-11","confidence":"medium","surveyed":false},"geometry":{"type":"Polygon","coordinates":[[[-77.0910751,38.7125807],[-77.0910244,38.7126412],[-77.0907184,38.7125574],[-77.0907748,38.7124841],[-77.0904127,38.7123167],[-77.0898601,38.7119504],[-77.0897637,38.712053],[-77.0895035,38.7123503],[-77.090882,38.7132466],[-77.0912334,38.7129048],[-77.0913742,38.7128859],[-77.0914346,38.7128336],[-77.0911221,38.7126494],[-77.0910751,38.7125807]]]}},{"type":"Feature","id":"way/232724806","properties":{"id":"way/232724806","name":"Employee Parking","class":"parking_lot","capacity":null,"access":null,"surface":null,"parking_type":"surface","source":"openstreetmap","source_date":"2026-09-11","confidence":"medium","surveyed":false},"geometry":{"type":"Polygon","coordinates":[[[-77.0926121,38.7092233],[-77.0927945,38.708991],[-77.0926899,38.7089407],[-77.0925611,38.709104],[-77.0924431,38.709083],[-77.0924082,38.7091814],[-77.0926121,38.7092233]]]}},{"type":"Feature","id":"way/232724811","properties":{"id":"way/232724811","name":"Employee Parking","class":"parking_lot","capacity":null,"access":null,"surface":null,"parking_type":"surface","source":"openstreetmap","source_date":"2026-09-11","confidence":"medium","surveyed":false},"geometry":{"type":"Polygon","coordinates":[[[-77.0849785,38.7106612],[-77.0850939,38.7104958],[-77.085028,38.7104664],[-77.0849423,38.7104304],[-77.0848735,38.7104049],[-77.0847974,38.7103774],[-77.0847199,38.7103445],[-77.0846414,38.7103152],[-77.0845829,38.7103263],[-77.0844985,38.7103327],[-77.0844367,38.7103221],[-77.0844011,38.7103117],[-77.0843482,38.710387],[-77.084426,38.7104208],[-77.0849785,38.7106612]]]}},{"type":"Feature","id":"way/232724816","properties":{"id":"way/232724816","name":"Employee","class":"parking_lot","capacity":null,"access":null,"surface":null,"parking_type":"surface","source":"openstreetmap","source_date":"2026-09-11","confidence":"medium","surveyed":false},"geometry":{"type":"Polygon","coordinates":[[[-77.0845641,38.7127797],[-77.0845279,38.7126829],[-77.0845038,38.7125762],[-77.0843455,38.7126013],[-77.084375,38.7127101],[-77.0844126,38.7128169],[-77.0845641,38.7127797]]]}},{"type":"Feature","id":"way/495477891","properties":{"id":"way/495477891","name":null,"class":"parking_lot","capacity":null,"access":"yes","surface":"asphalt","parking_type":"surface","source":"openstreetmap","source_date":"2026-09-11","confidence":"medium","surveyed":false},"geometry":{"type":"Polygon","coordinates":[[[-77.0724524,38.7106682],[-77.0723485,38.7107679],[-77.0722264,38.7108987],[-77.0722975,38.7109416],[-77.0722599,38.7109918],[-77.0725657,38.7112011],[-77.072614,38.7111656],[-77.072673,38.7112095],[-77.0728178,38.7110839],[-77.0729359,38.7111593],[-77.0730431,38.7110756],[-77.0726807,38.7108028],[-77.0724524,38.7106682]]]}},{"type":"Feature","id":"way/527634424","properties":{"id":"way/527634424","name":"Visitor Parking","class":"parking_lot","capacity":null,"access":"customers","surface":"asphalt","parking_type":"surface","source":"openstreetmap","source_date":"2026-09-11","confidence":"medium","surveyed":false},"geometry":{"type":"Polygon","coordinates":[[[-77.0856251,38.7101519],[-77.0855579,38.7101107],[-77.0856821,38.7099788],[-77.0857511,38.7100203],[-77.0856251,38.7101519]]]}},{"type":"Feature","id":"way/527918571","properties":{"id":"way/527918571","name":null,"class":"parking_lot","capacity":null,"access":null,"surface":null,"parking_type":null,"source":"openstreetmap","source_date":"2026-09-11","confidence":"medium","surveyed":false},"geometry":{"type":"Polygon","coordinates":[[[-77.0886375,38.7130363],[-77.0887308,38.713302],[-77.088759,38.7133983],[-77.0887657,38.7135333],[-77.0886425,38.7135463],[-77.0885954,38.7135531],[-77.0885551,38.7134799],[-77.0885524,38.7134014],[-77.088527,38.713324],[-77.08848,38.7131691],[-77.0884627,38.7131272],[-77.0885071,38.7131141],[-77.0884915,38.7130718],[-77.0886375,38.7130363]]]}},{"type":"Feature","id":"way/527918572","properties":{"id":"way/527918572","name":null,"class":"parking_lot","capacity":null,"access":null,"surface":null,"parking_type":null,"source":"openstreetmap","source_date":"2026-09-11","confidence":"medium","surveyed":false},"geometry":{"type":"Polygon","coordinates":[[[-77.08803,38.7137442],[-77.088054,38.7137307],[-77.0881328,38.7136777],[-77.0879903,38.7134937],[-77.0878857,38.7132695],[-77.0876868,38.7133316],[-77.0877942,38.7135402],[-77.0878642,38.7136376],[-77.0879074,38.7136131],[-77.08803,38.7137442]]]}},{"type":"Feature","id":"way/1072890553","properties":{"id":"way/1072890553","name":null,"class":"parking_lot","capacity":null,"access":null,"surface":null,"parking_type":null,"source":"openstreetmap","source_date":"2026-09-11","confidence":"medium","surveyed":false},"geometry":{"type":"Polygon","coordinates":[[[-77.104134,38.7105329],[-77.1041477,38.7104239],[-77.1044343,38.7104458],[-77.1044206,38.7105549],[-77.104134,38.7105329]]]}},{"type":"Feature","id":"way/1072890554","properties":{"id":"way/1072890554","name":null,"class":"parking_lot","capacity":null,"access":null,"surface":null,"parking_type":null,"source":"openstreetmap","source_date":"2026-09-11","confidence":"medium","surveyed":false},"geometry":{"type":"Polygon","coordinates":[[[-77.1040074,38.7112842],[-77.1036579,38.7108061],[-77.1039947,38.7106415],[-77.1042127,38.7109389],[-77.1042056,38.7112477],[-77.1041549,38.7112475],[-77.1040999,38.7112779],[-77.1040611,38.7112585],[-77.1040074,38.7112842]]]}},{"type":"Feature","id":"way/1072890555","properties":{"id":"way/1072890555","name":null,"class":"parking_lot","capacity":null,"access":null,"surface":null,"parking_type":null,"source":"openstreetmap","source_date":"2026-09-11","confidence":"medium","surveyed":false},"geometry":{"type":"Polygon","coordinates":[[[-77.1035103,38.7105613],[-77.1035053,38.7105064],[-77.103702,38.7104954],[-77.1037071,38.7105503],[-77.1035103,38.7105613]]]}}]}