{"type":"FeatureCollection","name":"places","features":[{"type":"Feature","id":"way/189853023","properties":{"id":"way/189853023","name":"The Mansion","class":"highlight","category":"Historic house","order":1,"source_name":"Mount Vernon Mansion","audio_url":null,"source":"openstreetmap","source_date":"2026-09-11","confidence":"medium","surveyed":false},"geometry":{"type":"Point","coordinates":[-77.08613635,38.7079602]}},{"type":"Feature","id":"way/232717210","properties":{"id":"way/232717210","name":"Upper Garden","class":"highlight","category":"Gardens & grounds","order":2,"source_name":"Upper Garden","audio_url":null,"source":"openstreetmap","source_date":"2026-09-11","confidence":"medium","surveyed":false},"geometry":{"type":"Point","coordinates":[-77.0866919,38.7089434]}},{"type":"Feature","id":"way/232717207","properties":{"id":"way/232717207","name":"Lower Garden","class":"highlight","category":"Gardens & grounds","order":3,"source_name":"Lower Garden","audio_url":null,"source":"openstreetmap","source_date":"2026-09-11","confidence":"medium","surveyed":false},"geometry":{"type":"Point","coordinates":[-77.08753444999999,38.70798275]}},{"type":"Feature","id":"way/43932369","properties":{"id":"way/43932369","name":"Bowling Green","class":"highlight","category":"Gardens & grounds","order":4,"source_name":"Bowling Green","audio_url":null,"source":"openstreetmap","source_date":"2026-09-11","confidence":"medium","surveyed":false},"geometry":{"type":"Point","coordinates":[-77.08724265000001,38.70860045]}},{"type":"Feature","id":"way/334219851","properties":{"id":"way/334219851","name":"Washington's Tomb","class":"highlight","category":"Memorials & remembrance","order":5,"source_name":"George and Martha Washington Tomb","audio_url":null,"source":"openstreetmap","source_date":"2026-09-11","confidence":"medium","surveyed":false},"geometry":{"type":"Point","coordinates":[-77.08872205,38.70683765]}},{"type":"Feature","id":"node/2410476835","properties":{"id":"node/2410476835","name":"Slave Memorial","class":"highlight","category":"Memorials & remembrance","order":6,"source_name":"Slave Memorial","audio_url":null,"source":"openstreetmap","source_date":"2026-09-11","confidence":"medium","surveyed":false},"geometry":{"type":"Point","coordinates":[-77.0890617,38.7060893]}},{"type":"Feature","id":"way/232718150","properties":{"id":"way/232718150","name":"Old Tomb","class":"highlight","category":"Memorials & remembrance","order":7,"source_name":"Old Tomb","audio_url":null,"source":"openstreetmap","source_date":"2026-09-11","confidence":"medium","surveyed":false},"geometry":{"type":"Point","coordinates":[-77.0872291,38.70661215]}},{"type":"Feature","id":"way/232718134","properties":{"id":"way/232718134","name":"The Farm","class":"highlight","category":"Agriculture & working life","order":8,"source_name":"The Farm","audio_url":null,"source":"openstreetmap","source_date":"2026-09-11","confidence":"medium","surveyed":false},"geometry":{"type":"Point","coordinates":[-77.0900991,38.705737299999996]}},{"type":"Feature","id":"way/232605898","properties":{"id":"way/232605898","name":"16-Sided Barn","class":"highlight","category":"Agriculture & working life","order":9,"source_name":"16-Sided Barn","audio_url":null,"source":"openstreetmap","source_date":"2026-09-11","confidence":"medium","surveyed":false},"geometry":{"type":"Point","coordinates":[-77.09134115,38.7067522]}},{"type":"Feature","id":"way/232605874","properties":{"id":"way/232605874","name":"Wharf","class":"highlight","category":"Along the river","order":10,"source_name":"Wharf","audio_url":null,"source":"openstreetmap","source_date":"2026-09-11","confidence":"medium","surveyed":false},"geometry":{"type":"Point","coordinates":[-77.0880614,38.704823399999995]}},{"type":"Feature","id":"way/189853024","properties":{"id":"way/189853024","name":"Greenhouse & quarters","class":"highlight","category":"Historic working spaces","order":11,"source_name":"Greenhouse and Slave Quarters","audio_url":null,"source":"openstreetmap","source_date":"2026-09-11","confidence":"medium","surveyed":false},"geometry":{"type":"Point","coordinates":[-77.08642075,38.709073450000005]}},{"type":"Feature","id":"way/232715247","properties":{"id":"way/232715247","name":"Ford Orientation Center","class":"highlight","category":"Visitor facilities","order":12,"source_name":"Ford Orientation Center","audio_url":null,"source":"openstreetmap","source_date":"2026-09-11","confidence":"medium","surveyed":false},"geometry":{"type":"Point","coordinates":[-77.08638105,38.7098239]}},{"type":"Feature","id":"way/122023877","properties":{"id":"way/122023877","name":"Museum & Education Center","class":"highlight","category":"Visitor facilities","order":13,"source_name":"Donald W. Reynolds Museum & Education Center","audio_url":null,"source":"openstreetmap","source_date":"2026-09-11","confidence":"medium","surveyed":false},"geometry":{"type":"Point","coordinates":[-77.08769720000001,38.7100729]}},{"type":"Feature","id":"way/232605866","properties":{"id":"way/232605866","name":"Blacksmith Shop","class":"highlight","category":"Historic working spaces","order":14,"source_name":"Blacksmith Shop","audio_url":null,"source":"openstreetmap","source_date":"2026-09-11","confidence":"medium","surveyed":false},"geometry":{"type":"Point","coordinates":[-77.08582375,38.7086867]}},{"type":"Feature","id":"way/232605900","properties":{"id":"way/232605900","name":"Kitchen","class":"highlight","category":"Historic working spaces","order":15,"source_name":"Kitchen","audio_url":null,"source":"openstreetmap","source_date":"2026-09-11","confidence":"medium","surveyed":false},"geometry":{"type":"Point","coordinates":[-77.086478,38.70790125]}},{"type":"Feature","id":"way/232718129","properties":{"id":"way/232718129","name":"Fruit Garden & Nursery","class":"highlight","category":"Gardens & grounds","order":16,"source_name":"Fruit Garden & Nursery","audio_url":null,"source":"openstreetmap","source_date":"2026-09-11","confidence":"medium","surveyed":false},"geometry":{"type":"Point","coordinates":[-77.08818375000001,38.70726115]}},{"type":"Feature","id":"way/528121461","properties":{"id":"way/528121461","name":"Batteau Shed","class":"place","category":"Agriculture & working life","order":17,"source_name":"Batteau Shed","audio_url":null,"source":"openstreetmap","source_date":"2026-09-11","confidence":"medium","surveyed":false},"geometry":{"type":"Point","coordinates":[-77.08994665,38.7050766]}},{"type":"Feature","id":"way/528128592","properties":{"id":"way/528128592","name":"Chicken Coops","class":"place","category":"Agriculture & working life","order":18,"source_name":"Chicken Coops","audio_url":null,"source":"openstreetmap","source_date":"2026-09-11","confidence":"medium","surveyed":false},"geometry":{"type":"Point","coordinates":[-77.08842535,38.707995800000006]}},{"type":"Feature","id":"way/528128593","properties":{"id":"way/528128593","name":"Chicken Coops","class":"place","category":"Agriculture & working life","order":19,"source_name":"Chicken Coops","audio_url":null,"source":"openstreetmap","source_date":"2026-09-11","confidence":"medium","surveyed":false},"geometry":{"type":"Point","coordinates":[-77.08840765,38.70796065]}},{"type":"Feature","id":"way/232605911","properties":{"id":"way/232605911","name":"Coach House","class":"place","category":"Agriculture & working life","order":20,"source_name":"Coach House","audio_url":null,"source":"openstreetmap","source_date":"2026-09-11","confidence":"medium","surveyed":false},"geometry":{"type":"Point","coordinates":[-77.08688035,38.70769435]}},{"type":"Feature","id":"way/232605880","properties":{"id":"way/232605880","name":"Dung Repository","class":"place","category":"Agriculture & working life","order":21,"source_name":"Dung Repository","audio_url":null,"source":"openstreetmap","source_date":"2026-09-11","confidence":"medium","surveyed":false},"geometry":{"type":"Point","coordinates":[-77.0868773,38.70744675]}},{"type":"Feature","id":"way/232718151","properties":{"id":"way/232718151","name":"Hog Island Sheep","class":"place","category":"Agriculture & working life","order":22,"source_name":"Hog Island Sheep","audio_url":null,"source":"openstreetmap","source_date":"2026-09-11","confidence":"medium","surveyed":false},"geometry":{"type":"Point","coordinates":[-77.08880024999999,38.7076542]}},{"type":"Feature","id":"way/232718152","properties":{"id":"way/232718152","name":"Ossabaw Island Hogs","class":"place","category":"Agriculture & working life","order":23,"source_name":"Ossabaw Island Hogs","audio_url":null,"source":"openstreetmap","source_date":"2026-09-11","confidence":"medium","surveyed":false},"geometry":{"type":"Point","coordinates":[-77.08841849999999,38.7081579]}},{"type":"Feature","id":"way/232605899","properties":{"id":"way/232605899","name":"Oxen Paddock","class":"place","category":"Agriculture & working life","order":24,"source_name":"Oxen Paddock","audio_url":null,"source":"openstreetmap","source_date":"2026-09-11","confidence":"medium","surveyed":false},"geometry":{"type":"Point","coordinates":[-77.0895835,38.7076189]}},{"type":"Feature","id":"way/232605870","properties":{"id":"way/232605870","name":"Pole Shelter","class":"place","category":"Agriculture & working life","order":25,"source_name":"Pole Shelter","audio_url":null,"source":"openstreetmap","source_date":"2026-09-11","confidence":"medium","surveyed":false},"geometry":{"type":"Point","coordinates":[-77.08919135,38.705249050000006]}},{"type":"Feature","id":"way/122023873","properties":{"id":"way/122023873","name":"Stable","class":"place","category":"Agriculture & working life","order":26,"source_name":"Stable","audio_url":null,"source":"openstreetmap","source_date":"2026-09-11","confidence":"medium","surveyed":false},"geometry":{"type":"Point","coordinates":[-77.08714545000001,38.707534499999994]}},{"type":"Feature","id":"way/232605873","properties":{"id":"way/232605873","name":"Stable and Corn Crib","class":"place","category":"Agriculture & working life","order":27,"source_name":"Stable and Corn Crib","audio_url":null,"source":"openstreetmap","source_date":"2026-09-11","confidence":"medium","surveyed":false},"geometry":{"type":"Point","coordinates":[-77.091016,38.706613250000004]}},{"type":"Feature","id":"way/232717204","properties":{"id":"way/232717204","name":"Garden House","class":"place","category":"Gardens & grounds","order":28,"source_name":"Garden House","audio_url":null,"source":"openstreetmap","source_date":"2026-09-11","confidence":"medium","surveyed":false},"geometry":{"type":"Point","coordinates":[-77.08718375000001,38.70929825]}},{"type":"Feature","id":"way/232717208","properties":{"id":"way/232717208","name":"Garden House","class":"place","category":"Gardens & grounds","order":29,"source_name":"Garden House","audio_url":null,"source":"openstreetmap","source_date":"2026-09-11","confidence":"medium","surveyed":false},"geometry":{"type":"Point","coordinates":[-77.08809785,38.7082488]}},{"type":"Feature","id":"way/232605882","properties":{"id":"way/232605882","name":"Gardener's House","class":"place","category":"Gardens & grounds","order":30,"source_name":"Gardener's House","audio_url":null,"source":"openstreetmap","source_date":"2026-09-11","confidence":"medium","surveyed":false},"geometry":{"type":"Point","coordinates":[-77.08635469999999,38.70831975]}},{"type":"Feature","id":"way/232717215","properties":{"id":"way/232717215","name":"Necessary","class":"place","category":"Gardens & grounds","order":31,"source_name":"Necessary","audio_url":null,"source":"openstreetmap","source_date":"2026-09-11","confidence":"medium","surveyed":false},"geometry":{"type":"Point","coordinates":[-77.0869654,38.70796345]}},{"type":"Feature","id":"way/528121450","properties":{"id":"way/528121450","name":"Necessary","class":"place","category":"Gardens & grounds","order":32,"source_name":"Necessary","audio_url":null,"source":"openstreetmap","source_date":"2026-09-11","confidence":"medium","surveyed":false},"geometry":{"type":"Point","coordinates":[-77.0864418,38.70857135]}},{"type":"Feature","id":"way/527651145","properties":{"id":"way/527651145","name":"Icehouse","class":"place","category":"Historic working spaces","order":33,"source_name":"Icehouse","audio_url":null,"source":"openstreetmap","source_date":"2026-09-11","confidence":"medium","surveyed":false},"geometry":{"type":"Point","coordinates":[-77.0865322,38.7070387]}},{"type":"Feature","id":"way/232605891","properties":{"id":"way/232605891","name":"Salt House","class":"place","category":"Historic working spaces","order":34,"source_name":"Salt House","audio_url":null,"source":"openstreetmap","source_date":"2026-09-11","confidence":"medium","surveyed":false},"geometry":{"type":"Point","coordinates":[-77.08626029999999,38.7084431]}},{"type":"Feature","id":"way/232605871","properties":{"id":"way/232605871","name":"Servants' Hall","class":"place","category":"Historic working spaces","order":35,"source_name":"Servants' Hall","audio_url":null,"source":"openstreetmap","source_date":"2026-09-11","confidence":"medium","surveyed":false},"geometry":{"type":"Point","coordinates":[-77.08620045,38.708233449999994]}},{"type":"Feature","id":"way/232605867","properties":{"id":"way/232605867","name":"Slave Cabin","class":"place","category":"Historic working spaces","order":36,"source_name":"Slave Cabin","audio_url":null,"source":"openstreetmap","source_date":"2026-09-11","confidence":"medium","surveyed":false},"geometry":{"type":"Point","coordinates":[-77.09087925,38.70701405]}},{"type":"Feature","id":"way/232605910","properties":{"id":"way/232605910","name":"Smokehouse","class":"place","category":"Historic working spaces","order":37,"source_name":"Smokehouse","audio_url":null,"source":"openstreetmap","source_date":"2026-09-11","confidence":"medium","surveyed":false},"geometry":{"type":"Point","coordinates":[-77.08673965,38.7078647]}},{"type":"Feature","id":"way/232605851","properties":{"id":"way/232605851","name":"Spinning House and Overseer's Quarters","class":"place","category":"Historic working spaces","order":38,"source_name":"Spinning House and Overseer's Quarters","audio_url":null,"source":"openstreetmap","source_date":"2026-09-11","confidence":"medium","surveyed":false},"geometry":{"type":"Point","coordinates":[-77.0861604,38.708555000000004]}},{"type":"Feature","id":"way/232605878","properties":{"id":"way/232605878","name":"Storehouse and Clerk's Quarters","class":"place","category":"Historic working spaces","order":39,"source_name":"Storehouse and Clerk's Quarters","audio_url":null,"source":"openstreetmap","source_date":"2026-09-11","confidence":"medium","surveyed":false},"geometry":{"type":"Point","coordinates":[-77.08665074999999,38.70797385]}},{"type":"Feature","id":"way/232605853","properties":{"id":"way/232605853","name":"Wash House","class":"place","category":"Historic working spaces","order":40,"source_name":"Wash House","audio_url":null,"source":"openstreetmap","source_date":"2026-09-11","confidence":"medium","surveyed":false},"geometry":{"type":"Point","coordinates":[-77.08682385,38.7077707]}},{"type":"Feature","id":"way/527911949","properties":{"id":"way/527911949","name":"Well House","class":"place","category":"Historic working spaces","order":41,"source_name":"Well House","audio_url":null,"source":"openstreetmap","source_date":"2026-09-11","confidence":"medium","surveyed":false},"geometry":{"type":"Point","coordinates":[-77.08810270000001,38.7095714]}},{"type":"Feature","id":"way/189853025","properties":{"id":"way/189853025","name":"Ann Pamela Cunningham Administration Building","class":"place","category":"Visitor facilities","order":42,"source_name":"Ann Pamela Cunningham Administration Building","audio_url":null,"source":"openstreetmap","source_date":"2026-09-11","confidence":"medium","surveyed":false},"geometry":{"type":"Point","coordinates":[-77.08605945,38.70944565]}},{"type":"Feature","id":"way/232605889","properties":{"id":"way/232605889","name":"Interpretive Center","class":"place","category":"Visitor facilities","order":43,"source_name":"Interpretive Center","audio_url":null,"source":"openstreetmap","source_date":"2026-09-11","confidence":"medium","surveyed":false},"geometry":{"type":"Point","coordinates":[-77.08614835,38.708718000000005]}},{"type":"Feature","id":"way/232605863","properties":{"id":"way/232605863","name":"Restrooms","class":"place","category":"Visitor facilities","order":44,"source_name":"Restrooms","audio_url":null,"source":"openstreetmap","source_date":"2026-09-11","confidence":"medium","surveyed":false},"geometry":{"type":"Point","coordinates":[-77.08976255,38.705898950000005]}},{"type":"Feature","id":"way/232715254","properties":{"id":"way/232715254","name":"Texas Gate/Main Entrance","class":"place","category":"Visitor facilities","order":45,"source_name":"Texas Gate/Main Entrance","audio_url":null,"source":"openstreetmap","source_date":"2026-09-11","confidence":"medium","surveyed":false},"geometry":{"type":"Point","coordinates":[-77.08644955,38.710293]}}]}